format  = 'OEF2.0'       ! file format
rectype = 'ML'           ! record type (1L/ML)
refsys  = ECLM J2000     ! default reference system
END_OF_HEADER
2015RN35
! Equinoctial elements: a, e*sin(LP), e*cos(LP), tan(i/2)*sin(LN), tan(i/2)*cos(LN), mean long.
 EQU   1.4597511649963673E+00   0.285859596765002   0.187526234607104   -0.001113623174100   -0.001969823073789  34.9412561585596
 MJD     57291.958166082 TDT
 MAG  22.961  0.150
! RMS    7.65556E-05   2.84584E-05   1.92970E-05   1.08878E-07   1.43177E-07   2.21481E-03
! EIG   2.03849E-08   2.27827E-08   5.43025E-08   8.15660E-08   9.40887E-07   9.23927E-05
! WEA   0.82858   0.30801   0.20880  -0.00115  -0.00128   0.41831
 COV   5.860754216342288E-09  2.178475194637964E-09  1.477016873791793E-09
 COV  -8.114239590827148E-12 -9.036406209503309E-12  1.695112577163289E-07
 COV   8.098813253587373E-10  5.488849689684368E-10 -3.016966168586602E-12
 COV  -3.359929776760915E-12  6.302641400297713E-08  3.723733780847244E-10
 COV  -2.043979492235941E-12 -2.276163225299708E-12  4.270120356467002E-08
 COV   1.185436446504529E-14  1.327352951099019E-14 -2.348163087657422E-10
 COV   2.049965584759008E-14 -2.615160441031371E-10  4.905365900335211E-06
 NOR   1.407628173225729E+14  1.719333122415499E+14 -3.660493465319044E+14
 NOR   6.574290122776647E+12  6.640536687416444E+11 -3.886510738939625E+12
 NOR   9.664981316593130E+14 -7.225538982561538E+14 -2.688994982864549E+13
 NOR   1.593137981393656E+12 -1.207076516925151E+13  1.053709448531498E+15
 NOR  -4.547685416641583E+12 -2.069606112122726E+12  1.276014812225883E+13
 NOR   1.899595559904909E+15 -2.184656853037390E+14  2.371844064663806E+11
 NOR   1.776507163661368E+14 -2.638752552511546E+10  1.783272635864894E+11
!MOID  0.00026    0
!NODES  0.84956 -0.00627
